QIANFAN-60              
1 62790U 25016F   25321.82037395  .00000060  00000+0  73742-4 0  9990
2 62790  88.9739 105.6522 0017026  59.5185 300.7645 13.50976288 43865
QIANFAN-61              
1 62791U 25016G   25321.77903378  .00000124  00000+0  17304-3 0  9990
2 62791  88.9805 105.8024 0015968  59.2277 301.0444 13.50973438 43877
QIANFAN-62              
1 62792U 25016H   25321.78323400  .00000111  00000+0  15271-3 0  9991
2 62792  88.9752 105.6839 0017349  59.2513 301.0344 13.50983316 43863
QIANFAN-63              
1 62793U 25016J   25321.80792140  .00000121  00000+0  16914-3 0  9992
2 62793  88.9759 105.6312 0017487  64.1186 296.1765 13.50976420 43905
QIANFAN-64              
1 62794U 25016K   25321.77494429  .00000122  00000+0  17028-3 0  9996
2 62794  88.9746 105.6120 0015313  58.1848 302.0792 13.50978275 43898
QIANFAN-65              
1 62795U 25016L   25321.77087925  .00000126  00000+0  17592-3 0  9996
2 62795  88.9742 105.6394 0015179  59.8717 300.3936 13.50977249 43870
QIANFAN-66              
1 62796U 25016M   25321.72561683  .00000129  00000+0  18164-3 0  9999
2 62796  88.9761 105.6093 0016199  55.5994 304.6686 13.50981267 43910
QIANFAN-67              
1 62797U 25016N   25321.80385883  .00000127  00000+0  17856-3 0  9990
2 62797  88.9752 105.6292 0016298  61.7644 298.5150 13.50974159 43899
QIANFAN-68              
1 62798U 25016P   25321.79559728  .00000120  00000+0  16620-3 0  9991
2 62798  88.9755 105.6744 0016321  60.1463 300.1308 13.50976454 43877
QIANFAN-69              
1 62799U 25016Q   25321.81214721  .00000124  00000+0  17376-3 0  9999
2 62799  88.9734 105.5474 0017101  60.9240 299.3621 13.50979574 43910
QIANFAN-70              
1 62800U 25016R   25321.82839913  .00000116  00000+0  16029-3 0  9994
2 62800  88.9755 105.6789 0016498  51.9840 308.2798 13.50976970 43877
QIANFAN-71              
1 62801U 25016S   25321.82437103  .00000118  00000+0  16446-3 0  9995
2 62801  88.9749 105.6604 0017076  64.1402 296.1508 13.50977450 43878
QIANFAN-72              
1 62802U 25016T   25321.84084773  .00000125  00000+0  17501-3 0  9990
2 62802  88.9740 105.6745 0020445  70.2679 290.0675 13.50977342 43861
QIANFAN-73              
1 63159U 25046A   25321.79367670  .00000055  00000+0  65911-4 0  9994
2 63159  88.9751 322.6077 0014513 188.9927 171.0966 13.50973710 44047
QIANFAN-74              
1 63160U 25046B   25321.77714411  .00000079  00000+0  10420-3 0  9993
2 63160  88.9751 322.4980 0002013  87.7401 272.3981 13.50975797 44101
QIANFAN-75              
1 63161U 25046C   25321.83858006  .00000140  00000+0  19806-3 0  9996
2 63161  88.9753 322.7248 0015541 192.5612 167.5154 13.50988110 43988
QIANFAN-76              
1 63162U 25046D   25321.76080219 -.00000093  00000+0 -16215-3 0  9992
2 63162  88.9750 322.7138 0013084 192.4653 167.6176 13.50966945 43985
QIANFAN-77              
1 63163U 25046E   25321.81496117  .00000058  00000+0  32104-4 0  9992
2 63163  88.9752 320.9195 0015671 151.3427 208.8614 13.96083422 44973
QIANFAN-78              
1 63164U 25046F   25321.80188492  .00000030  00000+0  27736-4 0  9991
2 63164  88.9751 322.5737 0014394 195.1613 164.9109 13.50974709 44065
QIANFAN-79              
1 63165U 25046G   25321.75650633  .00000066  00000+0  84122-4 0  9998
2 63165  88.9755 322.6850 0014141 193.3409 166.7370 13.50975394 44005
QIANFAN-80              
1 63166U 25046H   25321.77302722  .00000120  00000+0  16650-3 0  9995
2 63166  88.9753 322.3907 0012971 197.3540 162.7170 13.50978998 44167
QIANFAN-81              
1 63167U 25046J   25321.75183271  .00000156  00000+0  22212-3 0  9990
2 63167  88.9752 322.4610 0014361 185.8802 174.2182 13.50995657 44114
QIANFAN-82              
1 63168U 25046K   25321.78544103  .00000113  00000+0  15659-3 0  9999
2 63168  88.9752 322.5013 0012251 192.8748 167.2092 13.50975758 44107
QIANFAN-83              
1 63169U 25046L   25321.79349899  .00000102  00000+0  11668-3 0  9990
2 63169  88.9753 322.3258 0013965 179.7151 180.4017 13.61969274 44206
QIANFAN-84              
1 63170U 25046M   25321.81344059 -.00000027  00000+0 -59791-4 0  9996
2 63170  88.9750 322.6312 0015320 190.8413 169.2410 13.50986224 44036
QIANFAN-85              
1 63171U 25046N   25321.81004363  .00000141  00000+0  19939-3 0  9992
2 63171  88.9752 322.5033 0012641 191.8943 168.1912 13.50980423 44108
QIANFAN-86              
1 63172U 25046P   25321.81835539  .00000134  00000+0  18913-3 0  9993
2 63172  88.9754 322.3640 0010403 194.7787 165.3062 13.50977349 44181
QIANFAN-87              
1 63173U 25046Q   25321.78961382  .00000047  00000+0  54885-4 0  9998
2 63173  88.9750 322.4797 0011194 190.2784 169.8140 13.50970863 44111
QIANFAN-88              
1 63174U 25046R   25321.80604446  .00000117  00000+0  16183-3 0  9993
2 63174  88.9753 322.4318 0011358 198.8933 161.1798 13.50975053 44149
QIANFAN-89              
1 63175U 25046S   25321.84287299  .00000133  00000+0  18730-3 0  9999
2 63175  88.9753 322.6171 0015961 191.2977 168.7818 13.50977783 44045
QIANFAN-90              
1 63176U 25046T   25321.79754796  .00000037  00000+0  38457-4 0  9997
2 63176  88.9753 322.5942 0012988 188.0567 172.0378 13.50974640 44055
QIANFAN-91              
1 66033U 25233A   25321.72431250  .00000715  00000+0  33976-3 0  9993
2 66033  88.9963  64.9167 0017671 111.6035 248.7039 14.18329269  4478
QIANFAN-92              
1 66034U 25233B   25321.65444720  .00000909  00000+0  43330-3 0  9992
2 66034  88.9957  64.9300 0016697 117.7533 242.5352 14.18401908  4468
QIANFAN-93              
1 66035U 25233C   25321.79040536  .00000426  00000+0  19842-3 0  9990
2 66035  88.9963  64.9074 0016656 113.7217 246.5722 14.18699953  4480
QIANFAN-94              
1 66036U 25233D   25321.72233563  .00000816  00000+0  38856-3 0  9997
2 66036  88.9973  64.9096 0017045 106.7481 253.5580 14.18348053  4475
QIANFAN-95              
1 66037U 25233E   25321.77466681  .00001011  00000+0  41581-3 0  9999
2 66037  88.9963  64.9052 0016303 115.4251 244.8631 14.26183630  4483
QIANFAN-96              
1 66038U 25233F   25321.65231670  .00000825  00000+0  39407-3 0  9991
2 66038  88.9960  64.9295 0016921 119.3143 240.9739 14.18183866  4465
QIANFAN-97              
1 66039U 25233G   25321.64991463  .00000872  00000+0  41269-3 0  9995
2 66039  88.9961  64.9294 0016822 119.3511 240.9361 14.18717359  4466
QIANFAN-98              
1 66040U 25233H   25321.77378476  .00000999  00000+0  41064-3 0  9997
2 66040  88.9964  64.9052 0016161 115.5537 244.7329 14.26214214  4484
QIANFAN-99              
1 66041U 25233J   25321.64947388  .00000903  00000+0  42203-3 0  9999
2 66041  88.9963  64.9231 0016364 113.1698 247.1218 14.19444278  4469
QIANFAN-100             
1 66042U 25233K   25321.77330036  .00001006  00000+0  41332-3 0  9997
2 66042  88.9964  64.9051 0016762 116.1306 244.1614 14.26245271  4481
QIANFAN-101             
1 66043U 25233L   25321.76712883  .00000638  00000+0  25767-3 0  9995
2 66043  88.9964  64.9042 0016820 114.2357 246.0596 14.26651986  4486
QIANFAN-102             
1 66044U 25233M   25321.78536507  .00000848  00000+0  39467-3 0  9990
2 66044  88.9963  64.9064 0017135 116.4585 243.8365 14.19604519  4488
QIANFAN-103             
1 66045U 25233N   25321.71950174  .00000683  00000+0  32246-3 0  9999
2 66045  89.0012  64.9126 0015821 106.4087 253.8842 14.18643235  4478
QIANFAN-104             
1 66046U 25233P   25321.78576383  .00000843  00000+0  39621-3 0  9995
2 66046  88.9963  64.9067 0016810 116.5013 243.7903 14.19097028  4487
QIANFAN-105             
1 66047U 25233Q   25321.71542193  .00000375  00000+0  17229-3 0  9991
2 66047  88.9969  64.9118 0017546 112.2082 248.0971 14.19101323  4473
QIANFAN-106             
1 66048U 25233R   25321.71650124  .00000473  00000+0  22035-3 0  9996
2 66048  88.9965  64.9111 0017971 109.9285 250.3843 14.18818758  4473
QIANFAN-107             
1 66049U 25233S   25321.78513716  .00000624  00000+0  29059-3 0  9990
2 66049  88.9963  64.9065 0017575 113.6895 246.6141 14.19272405  4483
QIANFAN-108             
1 66050U 25233T   25321.50389175  .00000581  00000+0  26625-3 0  9990
2 66050  88.9961  64.9387 0016689 115.4318 244.8602 14.19993692  4441
